{"fetched_at":"2026-07-15T06:36:05.527Z","source":"https://celestrak.org/NORAD/elements/gp.php?NAME=HAWK&FORMAT=JSON","constellation":"hawkeye-360","records":[{"OBJECT_NAME":"HAWK-A","OBJECT_ID":"2018-099H","EPOCH":"2026-07-14T17:07:24.706560","CLASSIFICATION_TYPE":"U","MEAN_MOTION":15.24960794,"ECCENTRICITY":0.00346681,"INCLINATION":97.3898,"RA_OF_ASC_NODE":247.5936,"ARG_OF_PERICENTER":185.6155,"MEAN_ANOMALY":174.4699,"EPHEMERIS_TYPE":0,"NORAD_CAT_ID":43765,"ELEMENT_SET_NO":999,"REV_AT_EPOCH":41729,"BSTAR":0.00015536974,"MEAN_MOTION_DOT":0.00003863,"MEAN_MOTION_DDOT":0},{"OBJECT_NAME":"HAWK-B","OBJECT_ID":"2018-099AN","EPOCH":"2026-07-14T16:51:24.660000","CLASSIFICATION_TYPE":"U","MEAN_MOTION":15.23111515,"ECCENTRICITY":0.00313131,"INCLINATION":97.3949,"RA_OF_ASC_NODE":246.9395,"ARG_OF_PERICENTER":203.8074,"MEAN_ANOMALY":156.1716,"EPHEMERIS_TYPE":0,"NORAD_CAT_ID":43794,"ELEMENT_SET_NO":999,"REV_AT_EPOCH":41722,"BSTAR":0.00014663262,"MEAN_MOTION_DOT":0.00003433,"MEAN_MOTION_DDOT":0},{"OBJECT_NAME":"HAWK-C","OBJECT_ID":"2018-099AT","EPOCH":"2026-07-14T22:54:31.824864","CLASSIFICATION_TYPE":"U","MEAN_MOTION":15.28488203,"ECCENTRICITY":0.00402523,"INCLINATION":97.3875,"RA_OF_ASC_NODE":248.8817,"ARG_OF_PERICENTER":184.6529,"MEAN_ANOMALY":175.4343,"EPHEMERIS_TYPE":0,"NORAD_CAT_ID":43799,"ELEMENT_SET_NO":999,"REV_AT_EPOCH":41815,"BSTAR":0.00017627651,"MEAN_MOTION_DOT":0.00004927,"MEAN_MOTION_DDOT":0},{"OBJECT_NAME":"HAWK-2C","OBJECT_ID":"2021-006CT","EPOCH":"2026-07-14T15:57:44.005824","CLASSIFICATION_TYPE":"U","MEAN_MOTION":15.34984988,"ECCENTRICITY":0.00086549,"INCLINATION":97.2266,"RA_OF_ASC_NODE":239.4301,"ARG_OF_PERICENTER":102.312,"MEAN_ANOMALY":257.9093,"EPHEMERIS_TYPE":0,"NORAD_CAT_ID":47502,"ELEMENT_SET_NO":999,"REV_AT_EPOCH":30371,"BSTAR":0.00011374992,"MEAN_MOTION_DOT":0.00003786,"MEAN_MOTION_DDOT":0},{"OBJECT_NAME":"HAWK-2A","OBJECT_ID":"2021-006CW","EPOCH":"2026-07-14T16:00:56.630304","CLASSIFICATION_TYPE":"U","MEAN_MOTION":15.35000088,"ECCENTRICITY":0.00081944,"INCLINATION":97.2307,"RA_OF_ASC_NODE":240.1261,"ARG_OF_PERICENTER":105.6995,"MEAN_ANOMALY":254.5153,"EPHEMERIS_TYPE":0,"NORAD_CAT_ID":47505,"ELEMENT_SET_NO":999,"REV_AT_EPOCH":30371,"BSTAR":0.00011605834,"MEAN_MOTION_DOT":0.00003865,"MEAN_MOTION_DDOT":0},{"OBJECT_NAME":"HAWK-2B","OBJECT_ID":"2021-006CZ","EPOCH":"2026-07-14T15:51:40.832928","CLASSIFICATION_TYPE":"U","MEAN_MOTION":15.35131464,"ECCENTRICITY":0.00087306,"INCLINATION":97.2177,"RA_OF_ASC_NODE":238.4084,"ARG_OF_PERICENTER":104.0713,"MEAN_ANOMALY":256.1502,"EPHEMERIS_TYPE":0,"NORAD_CAT_ID":47508,"ELEMENT_SET_NO":999,"REV_AT_EPOCH":30371,"BSTAR":0.00013144897,"MEAN_MOTION_DOT":0.00004408,"MEAN_MOTION_DDOT":0},{"OBJECT_NAME":"HAWK-3B","OBJECT_ID":"2021-059BE","EPOCH":"2026-07-14T20:17:38.022144","CLASSIFICATION_TYPE":"U","MEAN_MOTION":15.71842993,"ECCENTRICITY":0.00044092,"INCLINATION":97.6629,"RA_OF_ASC_NODE":35.2168,"ARG_OF_PERICENTER":199.212,"MEAN_ANOMALY":160.8977,"EPHEMERIS_TYPE":0,"NORAD_CAT_ID":48931,"ELEMENT_SET_NO":999,"REV_AT_EPOCH":28219,"BSTAR":0.00024905173,"MEAN_MOTION_DOT":0.00032217,"MEAN_MOTION_DDOT":0},{"OBJECT_NAME":"HAWK-3C","OBJECT_ID":"2021-059BX","EPOCH":"2026-07-14T12:38:48.565536","CLASSIFICATION_TYPE":"U","MEAN_MOTION":15.7182365,"ECCENTRICITY":0.00046011,"INCLINATION":97.6746,"RA_OF_ASC_NODE":40.5999,"ARG_OF_PERICENTER":201.7329,"MEAN_ANOMALY":158.3739,"EPHEMERIS_TYPE":0,"NORAD_CAT_ID":48948,"ELEMENT_SET_NO":999,"REV_AT_EPOCH":28214,"BSTAR":0.00022375579,"MEAN_MOTION_DOT":0.00028898,"MEAN_MOTION_DDOT":0},{"OBJECT_NAME":"HAWK-3A","OBJECT_ID":"2021-059CG","EPOCH":"2026-07-14T12:38:38.898240","CLASSIFICATION_TYPE":"U","MEAN_MOTION":15.71823724,"ECCENTRICITY":0.00045348,"INCLINATION":97.669,"RA_OF_ASC_NODE":37.7828,"ARG_OF_PERICENTER":203.2182,"MEAN_ANOMALY":156.8876,"EPHEMERIS_TYPE":0,"NORAD_CAT_ID":48957,"ELEMENT_SET_NO":999,"REV_AT_EPOCH":28214,"BSTAR":0.00023168963,"MEAN_MOTION_DOT":0.0002993,"MEAN_MOTION_DDOT":0},{"OBJECT_NAME":"HAWK-5C","OBJECT_ID":"2022-057Y","EPOCH":"2026-07-14T21:35:29.110272","CLASSIFICATION_TYPE":"U","MEAN_MOTION":15.52318324,"ECCENTRICITY":0.00028214,"INCLINATION":97.6611,"RA_OF_ASC_NODE":357.3775,"ARG_OF_PERICENTER":347.7825,"MEAN_ANOMALY":12.3358,"EPHEMERIS_TYPE":0,"NORAD_CAT_ID":52754,"ELEMENT_SET_NO":999,"REV_AT_EPOCH":23064,"BSTAR":0.00017516603,"MEAN_MOTION_DOT":0.00010555,"MEAN_MOTION_DDOT":0},{"OBJECT_NAME":"HAWK-5B","OBJECT_ID":"2022-057AA","EPOCH":"2026-07-14T21:35:13.162560","CLASSIFICATION_TYPE":"U","MEAN_MOTION":15.52315637,"ECCENTRICITY":0.000351,"INCLINATION":97.6626,"RA_OF_ASC_NODE":355.7308,"ARG_OF_PERICENTER":333.2559,"MEAN_ANOMALY":26.8511,"EPHEMERIS_TYPE":0,"NORAD_CAT_ID":52756,"ELEMENT_SET_NO":999,"REV_AT_EPOCH":23064,"BSTAR":0.00017613632,"MEAN_MOTION_DOT":0.00010614,"MEAN_MOTION_DDOT":0},{"OBJECT_NAME":"HAWK-5A","OBJECT_ID":"2022-057AB","EPOCH":"2026-07-14T21:34:56.179776","CLASSIFICATION_TYPE":"U","MEAN_MOTION":15.5231691,"ECCENTRICITY":0.00033806,"INCLINATION":97.662,"RA_OF_ASC_NODE":356.561,"ARG_OF_PERICENTER":339.0948,"MEAN_ANOMALY":21.0165,"EPHEMERIS_TYPE":0,"NORAD_CAT_ID":52757,"ELEMENT_SET_NO":999,"REV_AT_EPOCH":23064,"BSTAR":0.00017703502,"MEAN_MOTION_DOT":0.00010669,"MEAN_MOTION_DDOT":0},{"OBJECT_NAME":"HAWK-6B","OBJECT_ID":"2023-011A","EPOCH":"2026-07-14T09:28:57.313920","CLASSIFICATION_TYPE":"U","MEAN_MOTION":15.23148645,"ECCENTRICITY":0.00040761,"INCLINATION":40.4968,"RA_OF_ASC_NODE":193.3478,"ARG_OF_PERICENTER":236.2544,"MEAN_ANOMALY":123.7877,"EPHEMERIS_TYPE":0,"NORAD_CAT_ID":55324,"ELEMENT_SET_NO":999,"REV_AT_EPOCH":19199,"BSTAR":0.00010934345,"MEAN_MOTION_DOT":0.00002441,"MEAN_MOTION_DDOT":0},{"OBJECT_NAME":"HAWK-6C","OBJECT_ID":"2023-011C","EPOCH":"2026-07-14T09:28:02.841312","CLASSIFICATION_TYPE":"U","MEAN_MOTION":15.23150953,"ECCENTRICITY":0.00045801,"INCLINATION":40.496,"RA_OF_ASC_NODE":190.1873,"ARG_OF_PERICENTER":229.0104,"MEAN_ANOMALY":131.0309,"EPHEMERIS_TYPE":0,"NORAD_CAT_ID":55326,"ELEMENT_SET_NO":999,"REV_AT_EPOCH":19200,"BSTAR":0.00010994346,"MEAN_MOTION_DOT":0.00002456,"MEAN_MOTION_DDOT":0},{"OBJECT_NAME":"HAWK-6A","OBJECT_ID":"2023-011D","EPOCH":"2026-07-14T09:28:06.038976","CLASSIFICATION_TYPE":"U","MEAN_MOTION":15.23150323,"ECCENTRICITY":0.00041197,"INCLINATION":40.4969,"RA_OF_ASC_NODE":191.8141,"ARG_OF_PERICENTER":226.4695,"MEAN_ANOMALY":133.5773,"EPHEMERIS_TYPE":0,"NORAD_CAT_ID":55327,"ELEMENT_SET_NO":999,"REV_AT_EPOCH":19200,"BSTAR":0.00011301398,"MEAN_MOTION_DOT":0.0000253,"MEAN_MOTION_DDOT":0},{"OBJECT_NAME":"HAWK-7A","OBJECT_ID":"2023-054P","EPOCH":"2026-07-14T18:07:15.224448","CLASSIFICATION_TYPE":"U","MEAN_MOTION":15.27629535,"ECCENTRICITY":0.00014623,"INCLINATION":97.2666,"RA_OF_ASC_NODE":82.3917,"ARG_OF_PERICENTER":336.0363,"MEAN_ANOMALY":24.0808,"EPHEMERIS_TYPE":0,"NORAD_CAT_ID":56191,"ELEMENT_SET_NO":999,"REV_AT_EPOCH":18123,"BSTAR":0.00011646152,"MEAN_MOTION_DOT":0.00003073,"MEAN_MOTION_DDOT":0}]}
